NORAD_CAT_ID,OBJECT_NAME,OBJECT_TYPE,EPOCH,MEAN_MOTION,ECCENTRICITY,INCLINATION,RA_OF_ASC_NODE,ARG_OF_PERICENTER,MEAN_ANOMALY,BSTAR,MEAN_MOTION_DOT,MEAN_MOTION_DDOT,TLE_LINE0,TLE_LINE1,TLE_LINE2,SEMIMAJOR_AXIS,PERIOD,APOGEE,PERIGEE,DECAYED
52298.0,STARLINK-3760,PAYLOAD,2022-08-22 22:00:00,15.08856527,0.0001645,53.2178,151.5698,62.8842,189.1217,-0.0014238,-0.00022887,0.0,0 STARLINK-3760,1 52298U 22041AP  22234.91667824 -.00022887  00000-0 -14238-2 0  9990,2 52298  53.2178 151.5698 0001645  62.8842 189.1217 15.08856527  1305,6917.83,95.437,540.8330000000002,538.557,0.0
52298.0,STARLINK-3760,PAYLOAD,2022-08-23 14:00:01,15.08828695,0.000161,53.2176,148.5764,64.975,210.2413,0.0023212,0.00036836,0.0,0 STARLINK-3760,1 52298U 22041AP  22235.58334491  .00036836  00000-0  23212-2 0  9994,2 52298  53.2176 148.5764 0001610  64.9750 210.2413 15.08828695 20351,6917.915,95.438,540.894,538.6659999999998,0.0
52298.0,STARLINK-3760,PAYLOAD,2022-08-23 22:00:01,15.08866287,0.0001689,53.2177,147.0811,64.5451,222.3265,-0.0016274,-0.00026114,0.0,0 STARLINK-3760,1 52298U 22041AP  22235.91668981 -.00026114  00000-0 -16274-2 0  9995,2 52298  53.2177 147.0811 0001689  64.5451 222.3265 15.08866287  1301,6917.8,95.436,540.8330000000002,538.497,0.0
52298.0,STARLINK-3760,PAYLOAD,2022-08-24 06:00:00,15.08851267,0.0001719,53.2172,145.5857,58.7567,239.6656,4.0988e-05,3.64e-06,0.0,0 STARLINK-3760,1 52298U 22041AP  22236.25001157  .00000364  00000-0  40988-4 0  9997,2 52298  53.2172 145.5857 0001719  58.7567 239.6656 15.08851267 20450,6917.846,95.437,540.9,538.5219999999998,0.0
52298.0,STARLINK-3760,PAYLOAD,2022-08-24 14:00:01,15.08814066,0.0001571999999999,53.2174,144.0876,65.7377,244.3072,0.0017274,0.00027291,0.0,0 STARLINK-3760,1 52298U 22041AP  22236.58334491  .00027291  00000-0  17274-2 0  9991,2 52298  53.2174 144.0876 0001572  65.7377 244.3072 15.08814066  1305,6917.96,95.439,540.9119999999998,538.737,0.0
52298.0,STARLINK-3760,PAYLOAD,2022-08-24 22:00:00,15.08844869,0.0001649,53.2175,142.5924,63.8147,257.8026,-0.0016809,-0.00026944,0.0,0 STARLINK-3760,1 52298U 22041AP  22236.91667824 -.00026944  00000-0 -16809-2 0  9996,2 52298  53.2175 142.5924 0001649  63.8147 257.8026 15.08844869  1304,6917.866,95.437,540.871,538.59,0.0
52298.0,STARLINK-3760,PAYLOAD,2022-08-25 14:00:01,15.088128,0.0001623,53.2172,139.5989,66.3083,278.4942,0.0029417,0.00046805,0.0,0 STARLINK-3760,1 52298U 22041AP  22237.58334491  .00046805  00000-0  29417-2 0  9996,2 52298  53.2172 139.5989 0001623  66.3083 278.4942 15.08812800  1303,6917.964,95.439,540.951,538.706,0.0
52298.0,STARLINK-3760,PAYLOAD,2022-08-25 22:00:00,15.08855384,0.0001747,53.2174,138.1037,63.902,292.4809,-0.0016521,-0.00026496,0.0,0 STARLINK-3760,1 52298U 22041AP  22237.91667824 -.00026496  00000-0 -16521-2 0  9990,2 52298  53.2174 138.1037 0001747  63.9020 292.4809 15.08855384  1307,6917.833000000001,95.437,540.9069999999998,538.49,0.0
52298.0,STARLINK-3760,PAYLOAD,2022-08-26 06:00:00,15.08840966,0.0001788,53.2172,136.6079,58.698,309.2833,0.00071974,0.00011186,0.0,0 STARLINK-3760,1 52298U 22041AP  22238.25001157  .00011186  00000-0  71974-3 0  9991,2 52298  53.2172 136.6079 0001788  58.6980 309.2833 15.08840966 20759,6917.877,95.437,540.979,538.506,0.0
52298.0,STARLINK-3760,PAYLOAD,2022-08-26 14:00:01,15.0882484,0.0001686,53.2174,135.1098,66.6325,313.0249,0.0031608,0.00050355,0.0,0 STARLINK-3760,1 52298U 22041AP  22238.58335648  .00050355  00000-0  31608-2 0  9992,2 52298  53.2174 135.1098 0001686  66.6325 313.0249 15.08824840  1302,6917.927,95.439,540.9580000000002,538.625,0.0
52298.0,STARLINK-3760,PAYLOAD,2022-08-26 22:00:00,15.088772699999998,0.0001793,53.2176,133.6149,62.9148,328.2754,-0.0044622,-0.00070681,0.0,0 STARLINK-3760,1 52298U 22041AP  22238.91667824 -.00070681  00000-0 -44622-2 0  9999,2 52298  53.2176 133.6149 0001793  62.9148 328.2754 15.08877270  1309,6917.766,95.435,540.872,538.391,0.0
52298.0,STARLINK-3760,PAYLOAD,2022-08-27 14:00:01,15.08813246,0.000167,53.2177,130.6208,65.696,348.6983,0.0031337,0.00049902,0.0,0 STARLINK-3760,1 52298U 22041AP  22239.58334491  .00049902  00000-0  31337-2 0  9993,2 52298  53.2177 130.6208 0001670  65.6960 348.6983 15.08813246  1302,6917.962,95.439,540.982,538.672,0.0
52298.0,STARLINK-3760,PAYLOAD,2022-08-27 22:00:00,15.08855173,0.0001813,53.2178,129.1259,62.2869,3.6919,-0.0014588,-0.0002343999999999,0.0,0 STARLINK-3760,1 52298U 22041AP  22239.91667824 -.00023440  00000-0 -14588-2 0  9999,2 52298  53.2178 129.1259 0001813  62.2869   3.6919 15.08855173  1304,6917.834,95.437,540.953,538.445,0.0
52298.0,STARLINK-3760,PAYLOAD,2022-08-28 06:00:00,15.08868639,0.0001786,53.2176,127.6297,57.8749,19.7064,-0.002744,-0.00043729,0.0,0 STARLINK-3760,1 52298U 22041AP  22240.25001157 -.00043729  00000-0 -27440-2 0  9992,2 52298  53.2176 127.6297 0001786  57.8749  19.7064 15.08868639 21068,6917.793000000002,95.436,540.893,538.422,0.0
52298.0,STARLINK-3760,PAYLOAD,2022-08-28 14:00:01,15.08808286,0.0001607,53.2179,126.1317,65.3064,23.8969,0.0031134,0.00049567,0.0,0 STARLINK-3760,1 52298U 22041AP  22240.58334491  .00049567  00000-0  31134-2 0  9997,2 52298  53.2179 126.1317 0001607  65.3064  23.8969 15.08808286  1301,6917.977,95.44,540.9540000000002,538.731,0.0
52298.0,STARLINK-3760,PAYLOAD,2022-08-28 22:00:00,15.08844887,0.0001742,53.2178,124.6369,61.2454,39.5331,-0.0012369999999999,-0.00019924,0.0,0 STARLINK-3760,1 52298U 22041AP  22240.91667824 -.00019924  00000-0 -12370-2 0  9990,2 52298  53.2178 124.6369 0001742  61.2454  39.5331 15.08844887 21168,6917.865,95.437,540.936,538.525,0.0
52298.0,STARLINK-3760,PAYLOAD,2022-08-29 14:00:01,15.08796859,0.0001523,53.2177,121.6426,65.4158,58.55,0.002651,0.00042105,0.0,0 STARLINK-3760,1 52298U 22041AP  22241.58334491  .00042105  00000-0  26510-2 0  9991,2 52298  53.2177 121.6426 0001523  65.4158  58.5500 15.08796859  1300,6918.012,95.44,540.931,538.8240000000002,0.0
52298.0,STARLINK-3760,PAYLOAD,2022-08-29 22:00:00,15.08830165,0.0001647,53.2176,120.1478,60.7408,74.7899,-0.0010792,-0.00017418,0.0,0 STARLINK-3760,1 52298U 22041AP  22241.91667824 -.00017418  00000-0 -10792-2 0  9993,2 52298  53.2176 120.1478 0001647  60.7408  74.7899 15.08830165  1303,6917.91,95.438,540.915,538.636,0.0
52298.0,STARLINK-3760,PAYLOAD,2022-08-30 14:00:01,15.08815843,0.0001530999999999,53.2173,117.1536,67.9596,90.7315,0.0023848,0.00037845,0.0,0 STARLINK-3760,1 52298U 22041AP  22242.58334491  .00037845  00000-0  23848-2 0  9998,2 52298  53.2173 117.1536 0001531  67.9596  90.7315 15.08815843 21411,6917.954000000002,95.439,540.878,538.76,0.0
52298.0,STARLINK-3760,PAYLOAD,2022-08-30 22:00:00,15.088424599999998,0.0001649,53.2171,115.6588,62.4202,107.8572,-0.00076193,-0.00012395,0.0,0 STARLINK-3760,1 52298U 22041AP  22242.91667824 -.00012395  00000-0 -76193-3 0  9991,2 52298  53.2171 115.6588 0001649  62.4202 107.8572 15.08842460  1309,6917.873000000001,95.437,540.879,538.597,0.0
52298.0,STARLINK-3760,PAYLOAD,2022-08-31 14:00:01,15.08834035,0.0001551999999999,53.2168,112.6643,70.3414,123.1306,0.002168,0.00034379,0.0,0 STARLINK-3760,1 52298U 22041AP  22243.58334491  .00034379  00000-0  21680-2 0  9990,2 52298  53.2168 112.6643 0001552  70.3414 123.1306 15.08834035  1305,6917.899,95.438,540.837,538.69,0.0
52298.0,STARLINK-3760,PAYLOAD,2022-08-31 22:00:00,15.08863734,0.0001638,53.2166,111.1696,63.6833,141.392,-0.0026241,-0.00041836,0.0,0 STARLINK-3760,1 52298U 22041AP  22243.91667824 -.00041836  00000-0 -26241-2 0  9992,2 52298  53.2166 111.1696 0001638  63.6833 141.3920 15.08863734  1302,6917.808000000001,95.436,540.806,538.54,0.0
52298.0,STARLINK-3760,PAYLOAD,2022-09-01 14:00:01,15.08822328,0.0001486999999999,53.2165,108.175,70.2614,158.0706,0.0020417,0.00032339,0.0,0 STARLINK-3760,1 52298U 22041AP  22244.58335648  .00032339  00000-0  20417-2 0  9997,2 52298  53.2165 108.1750 0001487  70.2614 158.0706 15.08822328 21719,6917.934,95.439,540.828,538.771,0.0
52298.0,STARLINK-3760,PAYLOAD,2022-09-01 22:00:00,15.08833969,0.0001628,53.2165,106.6804,62.7322,177.1244,-3.6912e-05,-8.75e-06,0.0,0 STARLINK-3760,1 52298U 22041AP  22244.91667824 -.00000875  00000-0 -36912-4 0  9999,2 52298  53.2165 106.6804 0001628  62.7322 177.1244 15.08833969  1306,6917.899,95.438,540.89,538.638,0.0
52298.0,STARLINK-3760,PAYLOAD,2022-09-02 06:00:00,15.08857523,0.0001565999999999,53.2164,105.1833,62.3096,189.13,-0.0020081,-0.0003212,0.0,0 STARLINK-3760,1 52298U 22041AP  22245.25001157 -.00032120  00000-0 -20081-2 0  9994,2 52298  53.2164 105.1833 0001566  62.3096 189.1300 15.08857523 21812,6917.8269999999975,95.436,540.775,538.6080000000002,0.0
52298.0,STARLINK-3760,PAYLOAD,2022-09-02 14:00:01,15.08838242,0.0001537,53.2167,103.6858,70.118,192.923,0.001248,0.00019629,0.0,0 STARLINK-3760,1 52298U 22041AP  22245.58334491  .00019629  00000-0  12480-2 0  9991,2 52298  53.2167 103.6858 0001537  70.1180 192.9230 15.08838242  1307,6917.886,95.438,540.814,538.687,0.0
52298.0,STARLINK-3760,PAYLOAD,2022-09-02 22:00:01,15.08836415,0.0001626999999999,53.2168,102.1912,61.2691,213.4416,-0.0016219,-0.00026005,0.0,0 STARLINK-3760,1 52298U 22041AP  22245.91668981 -.00026005  00000-0 -16219-2 0  9994,2 52298  53.2168 102.1912 0001627  61.2691 213.4416 15.08836415  1306,6917.891,95.438,540.882,538.631,0.0
52298.0,STARLINK-3760,PAYLOAD,2022-09-03 14:00:01,15.08827182,0.0001509,53.2173,99.1967,68.0958,229.7183,0.0018355999999999,0.00029036,0.0,0 STARLINK-3760,1 52298U 22041AP  22246.58334491  .00029036  00000-0  18356-2 0  9993,2 52298  53.2173  99.1967 0001509  68.0958 229.7183 15.08827182 22010,6917.92,95.438,540.828,538.741,0.0
52298.0,STARLINK-3760,PAYLOAD,2022-09-03 22:00:00,15.08834243,0.0001668,53.2175,97.7023,60.0603,249.3488,0.00072201,0.0001122,0.0,0 STARLINK-3760,1 52298U 22041AP  22246.91667824  .00011220  00000-0  72201-3 0  9995,2 52298  53.2175  97.7023 0001668  60.0603 249.3488 15.08834243  1305,6917.898,95.438,540.9169999999998,538.609,0.0
